SAUDISAT 1C             
1 27607U 02058C   24102.18425557  .00001535  00000+0  22670-3 0  9996
2 27607  64.5539  67.4376 0032564 144.2081 216.1214 14.78590269146626
SAUDISAT 2              
1 28371U 04025F   24102.50109301  .00000468  00000+0  11864-3 0  9990
2 28371  98.4780  74.5994 0024310 221.9662 137.9672 14.55370991 49849
SAUDISAT 3              
1 31118U 07012B   24102.39654272  .00000461  00000+0  84764-4 0  9994
2 31118  98.0510  46.8637 0013647 240.2846 119.7002 14.70111954910676
PISAT                   
1 41784U 16059B   24102.52799152  .00001105  00000+0  21054-3 0  9995
2 41784  97.8406 127.5776 0029791 223.1209 136.7661 14.65620027402898
FLYING LAPTOP           
1 42831U 17042G   24102.51489011  .00002336  00000+0  22019-3 0  9990
2 42831  97.3850 287.3483 0011599 303.9607  56.0512 14.94662047367176
SALSAT                  
1 46495U 20068K   24102.45779361  .00005281  00000+0  31221-3 0  9992
2 46495  97.8115  60.1610 0014276 173.2771 186.8652 15.11842979194224
